{
  "type": "FeatureCollection",
  "features": [
    {
      "type": "Feature",
      "properties": {
        "norad_id": 44334,
        "name": "EUTELSAT 7C",
        "group": "eutelsat",
        "lat": 0.04339931319326972,
        "lon": -112.55260227426258,
        "alt_km": 35771.96482176651,
        "timestamp": "2025-12-08T10:52:02.620970+00:00",
        "meta_object_name": "EUTELSAT 7C",
        "meta_object_id": "2019-034B",
        "meta_epoch": "2025-12-07T22:13:45.286176",
        "meta_mean_motion": 1.00270379,
        "meta_eccentricity": 0.00034358,
        "meta_inclination": 0.0741,
        "meta_ra_of_asc_node": 178.5403,
        "meta_arg_of_pericenter": 63.069,
        "meta_mean_anomaly": 175.7504,
        "meta_ephemeris_type": 0,
        "meta_classification_type": "U",
        "meta_norad_cat_id": 44334,
        "meta_element_set_no": 999,
        "meta_rev_at_epoch": 491,
        "meta_bstar": 0,
        "meta_mean_motion_dot": 5.1e-07,
        "meta_mean_motion_ddot": 0,
        "tle_line1": "1 44334U 19034B   25341.92621859  .00000051  00000+0  00000+0 0  9996",
        "tle_line2": "2 44334   0.0741 178.5403 0003435  63.0690 175.7504  1.00270379  4911"
      },
      "geometry": {
        "type": "Point",
        "coordinates": [
          -112.55260227426258,
          0.04339931319326972
        ]
      }
    },
    {
      "type": "Feature",
      "properties": {
        "norad_id": 44624,
        "name": "EUTELSAT 5 WEST B",
        "group": "eutelsat",
        "lat": -0.08514406167315954,
        "lon": -124.5504813447043,
        "alt_km": 35772.39984600798,
        "timestamp": "2025-12-08T10:52:02.620983+00:00",
        "meta_object_name": "EUTELSAT 5 WEST B",
        "meta_object_id": "2019-067A",
        "meta_epoch": "2025-12-07T22:10:15.621024",
        "meta_mean_motion": 1.00270758,
        "meta_eccentricity": 0.00035675,
        "meta_inclination": 0.0653,
        "meta_ra_of_asc_node": 338.5812,
        "meta_arg_of_pericenter": 279.2547,
        "meta_mean_anomaly": 146.6691,
        "meta_ephemeris_type": 0,
        "meta_classification_type": "U",
        "meta_norad_cat_id": 44624,
        "meta_element_set_no": 999,
        "meta_rev_at_epoch": 2251,
        "meta_bstar": 0,
        "meta_mean_motion_dot": -3.9e-07,
        "meta_mean_motion_ddot": 0,
        "tle_line1": "1 44624U 19067A   25341.92379191 -.00000039  00000+0  00000+0 0  9990",
        "tle_line2": "2 44624   0.0653 338.5812 0003567 279.2547 146.6691  1.00270758 22516"
      },
      "geometry": {
        "type": "Point",
        "coordinates": [
          -124.5504813447043,
          -0.08514406167315954
        ]
      }
    },
    {
      "type": "Feature",
      "properties": {
        "norad_id": 45027,
        "name": "EUTELSAT KONNECT",
        "group": "eutelsat",
        "lat": 0.009373719120838868,
        "lon": -112.36491088307704,
        "alt_km": 35780.6814817371,
        "timestamp": "2025-12-08T10:52:02.620995+00:00",
        "meta_object_name": "EUTELSAT KONNECT",
        "meta_object_id": "2020-005B",
        "meta_epoch": "2025-12-07T22:13:45.286176",
        "meta_mean_motion": 1.0026925,
        "meta_eccentricity": 0.00018221,
        "meta_inclination": 0.0718,
        "meta_ra_of_asc_node": 97.3504,
        "meta_arg_of_pericenter": 188.4731,
        "meta_mean_anomaly": 131.7427,
        "meta_ephemeris_type": 0,
        "meta_classification_type": "U",
        "meta_norad_cat_id": 45027,
        "meta_element_set_no": 999,
        "meta_rev_at_epoch": 2241,
        "meta_bstar": 0,
        "meta_mean_motion_dot": 5.2e-07,
        "meta_mean_motion_ddot": 0,
        "tle_line1": "1 45027U 20005B   25341.92621859  .00000052  00000+0  00000+0 0  9997",
        "tle_line2": "2 45027   0.0718  97.3504 0001822 188.4731 131.7427  1.00269250 22418"
      },
      "geometry": {
        "type": "Point",
        "coordinates": [
          -112.36491088307704,
          0.009373719120838868
        ]
      }
    },
    {
      "type": "Feature",
      "properties": {
        "norad_id": 49056,
        "name": "EUTELSAT QUANTUM",
        "group": "eutelsat",
        "lat": -0.03971896530714681,
        "lon": -71.82079485226556,
        "alt_km": 35771.29770241698,
        "timestamp": "2025-12-08T10:52:02.621007+00:00",
        "meta_object_name": "EUTELSAT QUANTUM",
        "meta_object_id": "2021-069B",
        "meta_epoch": "2025-12-07T22:07:21.467136",
        "meta_mean_motion": 1.00271283,
        "meta_eccentricity": 0.00037074,
        "meta_inclination": 0.0312,
        "meta_ra_of_asc_node": 50.9099,
        "meta_arg_of_pericenter": 218.6445,
        "meta_mean_anomaly": 186.9219,
        "meta_ephemeris_type": 0,
        "meta_classification_type": "U",
        "meta_norad_cat_id": 49056,
        "meta_element_set_no": 999,
        "meta_rev_at_epoch": 1601,
        "meta_bstar": 0,
        "meta_mean_motion_dot": 1.29e-06,
        "meta_mean_motion_ddot": 0,
        "tle_line1": "1 49056U 21069B   25341.92177624  .00000129  00000+0  00000+0 0  9995",
        "tle_line2": "2 49056   0.0312  50.9099 0003707 218.6445 186.9219  1.00271283 16019"
      },
      "geometry": {
        "type": "Point",
        "coordinates": [
          -71.82079485226556,
          -0.03971896530714681
        ]
      }
    },
    {
      "type": "Feature",
      "properties": {
        "norad_id": 53765,
        "name": "EUTELSAT KONNECT VHTS",
        "group": "eutelsat",
        "lat": 0.015207575262118885,
        "lon": -116.81821018157439,
        "alt_km": 35773.65269575405,
        "timestamp": "2025-12-08T10:52:02.621019+00:00",
        "meta_object_name": "EUTELSAT KONNECT VHTS",
        "meta_object_id": "2022-110A",
        "meta_epoch": "2025-12-07T06:47:54.253248",
        "meta_mean_motion": 1.00271597,
        "meta_eccentricity": 0.00030323,
        "meta_inclination": 0.0619,
        "meta_ra_of_asc_node": 106.3169,
        "meta_arg_of_pericenter": 122.232,
        "meta_mean_anomaly": 312.4415,
        "meta_ephemeris_type": 0,
        "meta_classification_type": "U",
        "meta_norad_cat_id": 53765,
        "meta_element_set_no": 999,
        "meta_rev_at_epoch": 490,
        "meta_bstar": 0,
        "meta_mean_motion_dot": 2.2e-07,
        "meta_mean_motion_ddot": 0,
        "tle_line1": "1 53765U 22110A   25341.28326682  .00000022  00000+0  00000+0 0  9996",
        "tle_line2": "2 53765   0.0619 106.3169 0003032 122.2320 312.4415  1.00271597  4905"
      },
      "geometry": {
        "type": "Point",
        "coordinates": [
          -116.81821018157439,
          0.015207575262118885
        ]
      }
    },
    {
      "type": "Feature",
      "properties": {
        "norad_id": 54048,
        "name": "EUTELSAT HOTBIRD 13F",
        "group": "eutelsat",
        "lat": -0.04849698706670491,
        "lon": -106.54277052451928,
        "alt_km": 35787.31865169723,
        "timestamp": "2025-12-08T10:52:02.621031+00:00",
        "meta_object_name": "EUTELSAT HOTBIRD 13F",
        "meta_object_id": "2022-134A",
        "meta_epoch": "2025-12-07T22:15:22.631328",
        "meta_mean_motion": 1.0027244,
        "meta_eccentricity": 0.00021456,
        "meta_inclination": 0.0473,
        "meta_ra_of_asc_node": 293.1939,
        "meta_arg_of_pericenter": 59.575,
        "meta_mean_anomaly": 71.0316,
        "meta_ephemeris_type": 0,
        "meta_classification_type": "U",
        "meta_norad_cat_id": 54048,
        "meta_element_set_no": 999,
        "meta_rev_at_epoch": 1145,
        "meta_bstar": 0,
        "meta_mean_motion_dot": 9e-07,
        "meta_mean_motion_ddot": 0,
        "tle_line1": "1 54048U 22134A   25341.92734527  .00000090  00000+0  00000+0 0  9994",
        "tle_line2": "2 54048   0.0473 293.1939 0002145  59.5750  71.0316  1.00272440 11455"
      },
      "geometry": {
        "type": "Point",
        "coordinates": [
          -106.54277052451928,
          -0.04849698706670491
        ]
      }
    },
    {
      "type": "Feature",
      "properties": {
        "norad_id": 54225,
        "name": "EUTELSAT HOTBIRD 13G",
        "group": "eutelsat",
        "lat": -0.010333282355125463,
        "lon": -106.52409998253131,
        "alt_km": 35783.00750023883,
        "timestamp": "2025-12-08T10:52:02.621043+00:00",
        "meta_object_name": "EUTELSAT HOTBIRD 13G",
        "meta_object_id": "2022-146A",
        "meta_epoch": "2025-12-07T15:24:34.772832",
        "meta_mean_motion": 1.00270103,
        "meta_eccentricity": 0.00019265,
        "meta_inclination": 0.048,
        "meta_ra_of_asc_node": 235.4719,
        "meta_arg_of_pericenter": 313.1992,
        "meta_mean_anomaly": 132.1292,
        "meta_ephemeris_type": 0,
        "meta_classification_type": "U",
        "meta_norad_cat_id": 54225,
        "meta_element_set_no": 999,
        "meta_rev_at_epoch": 554,
        "meta_bstar": 0,
        "meta_mean_motion_dot": 9.1e-07,
        "meta_mean_motion_ddot": 0,
        "tle_line1": "1 54225U 22146A   25341.64206913  .00000091  00000+0  00000+0 0  9997",
        "tle_line2": "2 54225   0.0480 235.4719 0001926 313.1992 132.1292  1.00270103  5547"
      },
      "geometry": {
        "type": "Point",
        "coordinates": [
          -106.52409998253131,
          -0.010333282355125463
        ]
      }
    }
  ]
}